FLOCK 4G-30             
1 62679U 25009BY  26068.70871344  .00013147  00000+0  49475-3 0  9999
2 62679  97.3969 150.6012 0003795 342.4152  17.6955 15.27244548121341
STARLINK-33959          
1 63817U 25092P   26068.32390745  .00029843  00000+0  10891-2 0  9994
2 63817  42.9947 174.1840 0002351 286.5649  73.4944 15.27594780 48616
